{
  "type": "FeatureCollection",
  "features": [
    {
      "type": "Feature",
      "properties": {
        "norad_id": 38857,
        "name": "GSAT0103 (GALILEO-FM3)",
        "group": "gnss",
        "lat": -53.84369435601265,
        "lon": -4.646103536196938,
        "alt_km": 23219.813803737994,
        "timestamp": "2025-12-20T09:36:01.887536+00:00",
        "meta_object_name": "GSAT0103 (GALILEO-FM3)",
        "meta_object_id": "2012-055A",
        "meta_epoch": "2025-12-18T05:17:11.481792",
        "meta_mean_motion": 1.70473412,
        "meta_eccentricity": 0.00028558,
        "meta_inclination": 55.6954,
        "meta_ra_of_asc_node": 106.5161,
        "meta_arg_of_pericenter": 269.0808,
        "meta_mean_anomaly": 90.8455,
        "meta_ephemeris_type": 0,
        "meta_classification_type": "U",
        "meta_norad_cat_id": 38857,
        "meta_element_set_no": 999,
        "meta_rev_at_epoch": 8192,
        "meta_bstar": 0,
        "meta_mean_motion_dot": -7e-08,
        "meta_mean_motion_ddot": 0,
        "tle_line1": "1 38857U 12055A   25352.22027178 -.00000007  00000+0  00000+0 0  9996",
        "tle_line2": "2 38857  55.6954 106.5161 0002855 269.0808  90.8455  1.70473412 81920"
      },
      "geometry": {
        "type": "Point",
        "coordinates": [
          -4.646103536196938,
          -53.84369435601265
        ]
      }
    },
    {
      "type": "Feature",
      "properties": {
        "norad_id": 38953,
        "name": "BEIDOU-2 G6 (C02)",
        "group": "gnss",
        "lat": -3.511801619082908,
        "lon": -42.94403855744466,
        "alt_km": 35765.43117913924,
        "timestamp": "2025-12-20T09:36:01.887549+00:00",
        "meta_object_name": "BEIDOU-2 G6 (C02)",
        "meta_object_id": "2012-059A",
        "meta_epoch": "2025-12-20T01:38:48.260832",
        "meta_mean_motion": 1.00269041,
        "meta_eccentricity": 0.0008244,
        "meta_inclination": 3.9668,
        "meta_ra_of_asc_node": 75.4348,
        "meta_arg_of_pericenter": 292.312,
        "meta_mean_anomaly": 189.8125,
        "meta_ephemeris_type": 0,
        "meta_classification_type": "U",
        "meta_norad_cat_id": 38953,
        "meta_element_set_no": 999,
        "meta_rev_at_epoch": 4811,
        "meta_bstar": 0,
        "meta_mean_motion_dot": -1.53e-06,
        "meta_mean_motion_ddot": 0,
        "tle_line1": "1 38953U 12059A   25354.06861413 -.00000153  00000+0  00000+0 0  9991",
        "tle_line2": "2 38953   3.9668  75.4348 0008244 292.3120 189.8125  1.00269041 48111"
      },
      "geometry": {
        "type": "Point",
        "coordinates": [
          -42.94403855744466,
          -3.511801619082908
        ]
      }
    },
    {
      "type": "Feature",
      "properties": {
        "norad_id": 38977,
        "name": "LUCH 5B (SDCM/PRN 125)",
        "group": "gnss",
        "lat": 2.5523349282460663,
        "lon": -142.90310618631494,
        "alt_km": 35761.29747894722,
        "timestamp": "2025-12-20T09:36:01.887564+00:00",
        "meta_object_name": "LUCH 5B (SDCM/PRN 125)",
        "meta_object_id": "2012-061A",
        "meta_epoch": "2025-12-19T22:51:38.845152",
        "meta_mean_motion": 1.00272415,
        "meta_eccentricity": 0.0006643,
        "meta_inclination": 10.096,
        "meta_ra_of_asc_node": 51.6367,
        "meta_arg_of_pericenter": 195.1754,
        "meta_mean_anomaly": 168.565,
        "meta_ephemeris_type": 0,
        "meta_classification_type": "U",
        "meta_norad_cat_id": 38977,
        "meta_element_set_no": 999,
        "meta_rev_at_epoch": 4781,
        "meta_bstar": 0,
        "meta_mean_motion_dot": -1.21e-06,
        "meta_mean_motion_ddot": 0,
        "tle_line1": "1 38977U 12061A   25353.95253293 -.00000121  00000+0  00000+0 0  9993",
        "tle_line2": "2 38977  10.0960  51.6367 0006643 195.1754 168.5650  1.00272415 47814"
      },
      "geometry": {
        "type": "Point",
        "coordinates": [
          -142.90310618631494,
          2.5523349282460663
        ]
      }
    },
    {
      "type": "Feature",
      "properties": {
        "norad_id": 39155,
        "name": "COSMOS 2485 (747)",
        "group": "gnss",
        "lat": -29.436499018650963,
        "lon": -85.36480070958964,
        "alt_km": 19073.398400570295,
        "timestamp": "2025-12-20T09:36:01.887575+00:00",
        "meta_object_name": "COSMOS 2485 (747)",
        "meta_object_id": "2013-019A",
        "meta_epoch": "2025-12-20T02:56:15.294336",
        "meta_mean_motion": 2.13103192,
        "meta_eccentricity": 0.0024792,
        "meta_inclination": 65.3175,
        "meta_ra_of_asc_node": 79.6189,
        "meta_arg_of_pericenter": 230.0872,
        "meta_mean_anomaly": 129.7256,
        "meta_ephemeris_type": 0,
        "meta_classification_type": "U",
        "meta_norad_cat_id": 39155,
        "meta_element_set_no": 999,
        "meta_rev_at_epoch": 9846,
        "meta_bstar": 0,
        "meta_mean_motion_dot": -2e-07,
        "meta_mean_motion_ddot": 0,
        "tle_line1": "1 39155U 13019A   25354.12239924 -.00000020  00000+0  00000+0 0  9999",
        "tle_line2": "2 39155  65.3175  79.6189 0024792 230.0872 129.7256  2.13103192 98469"
      },
      "geometry": {
        "type": "Point",
        "coordinates": [
          -85.36480070958964,
          -29.436499018650963
        ]
      }
    },
    {
      "type": "Feature",
      "properties": {
        "norad_id": 39166,
        "name": "GPS BIIF-4  (PRN 27)",
        "group": "gnss",
        "lat": 22.79176478919165,
        "lon": 78.917027726983,
        "alt_km": 20256.84949560314,
        "timestamp": "2025-12-20T09:36:01.887586+00:00",
        "meta_object_name": "GPS BIIF-4  (PRN 27)",
        "meta_object_id": "2013-023A",
        "meta_epoch": "2025-12-19T04:43:12.887616",
        "meta_mean_motion": 2.00564719,
        "meta_eccentricity": 0.0138305,
        "meta_inclination": 54.6464,
        "meta_ra_of_asc_node": 276.3057,
        "meta_arg_of_pericenter": 48.6894,
        "meta_mean_anomaly": 312.5202,
        "meta_ephemeris_type": 0,
        "meta_classification_type": "U",
        "meta_norad_cat_id": 39166,
        "meta_element_set_no": 999,
        "meta_rev_at_epoch": 9227,
        "meta_bstar": 0,
        "meta_mean_motion_dot": -2.9e-07,
        "meta_mean_motion_ddot": 0,
        "tle_line1": "1 39166U 13023A   25353.19667694 -.00000029  00000+0  00000+0 0  9990",
        "tle_line2": "2 39166  54.6464 276.3057 0138305  48.6894 312.5202  2.00564719 92274"
      },
      "geometry": {
        "type": "Point",
        "coordinates": [
          78.917027726983,
          22.79176478919165
        ]
      }
    },
    {
      "type": "Feature",
      "properties": {
        "norad_id": 39199,
        "name": "IRNSS-1A",
        "group": "gnss",
        "lat": -22.63732278037868,
        "lon": -77.54043510501783,
        "alt_km": 35686.99948074693,
        "timestamp": "2025-12-20T09:36:01.887599+00:00",
        "meta_object_name": "IRNSS-1A",
        "meta_object_id": "2013-034A",
        "meta_epoch": "2025-12-18T18:41:43.776960",
        "meta_mean_motion": 1.00272479,
        "meta_eccentricity": 0.0024472,
        "meta_inclination": 35.3183,
        "meta_ra_of_asc_node": 66.4661,
        "meta_arg_of_pericenter": 211.0525,
        "meta_mean_anomaly": 145.3931,
        "meta_ephemeris_type": 0,
        "meta_classification_type": "U",
        "meta_norad_cat_id": 39199,
        "meta_element_set_no": 999,
        "meta_rev_at_epoch": 4555,
        "meta_bstar": 0,
        "meta_mean_motion_dot": 6.5e-07,
        "meta_mean_motion_ddot": 0,
        "tle_line1": "1 39199U 13034A   25352.77897890  .00000065  00000+0  00000+0 0  9993",
        "tle_line2": "2 39199  35.3183  66.4661 0024472 211.0525 145.3931  1.00272479 45557"
      },
      "geometry": {
        "type": "Point",
        "coordinates": [
          -77.54043510501783,
          -22.63732278037868
        ]
      }
    },
    {
      "type": "Feature",
      "properties": {
        "norad_id": 39533,
        "name": "GPS BIIF-5  (PRN 30)",
        "group": "gnss",
        "lat": 22.30988885170075,
        "lon": -41.00482788085273,
        "alt_km": 20121.901933320696,
        "timestamp": "2025-12-20T09:36:01.887610+00:00",
        "meta_object_name": "GPS BIIF-5  (PRN 30)",
        "meta_object_id": "2014-008A",
        "meta_epoch": "2025-12-17T16:40:23.348352",
        "meta_mean_motion": 2.00559499,
        "meta_eccentricity": 0.0079919,
        "meta_inclination": 53.633,
        "meta_ra_of_asc_node": 156.722,
        "meta_arg_of_pericenter": 226.3473,
        "meta_mean_anomaly": 132.9898,
        "meta_ephemeris_type": 0,
        "meta_classification_type": "U",
        "meta_norad_cat_id": 39533,
        "meta_element_set_no": 999,
        "meta_rev_at_epoch": 8604,
        "meta_bstar": 0,
        "meta_mean_motion_dot": 7.4e-07,
        "meta_mean_motion_ddot": 0,
        "tle_line1": "1 39533U 14008A   25351.69471468  .00000074  00000+0  00000+0 0  9996",
        "tle_line2": "2 39533  53.6330 156.7220 0079919 226.3473 132.9898  2.00559499 86041"
      },
      "geometry": {
        "type": "Point",
        "coordinates": [
          -41.00482788085273,
          22.30988885170075
        ]
      }
    }
  ]
}